ONEWEB-0697             
1 61603U 24188K   25133.42961582  .00000605  00000+0  16712-2 0  9999
2 61603  87.8794 100.7824 0002074 109.3043 250.8310 13.11415182 32052
ONEWEB-0699             
1 61605U 24188M   25133.48402188  .00000570  00000+0  15968-2 0  9992
2 61605  87.8789 115.9483 0001663  95.6694 264.4623 13.10370679 30965
ONEWEB-0700             
1 61606U 24188N   25133.48568117  .00000568  00000+0  15896-2 0  9995
2 61606  87.8704 115.8925 0002504 100.9023 259.2387 13.10371312 30957
ONEWEB-0701             
1 61607U 24188P   25133.50229146 -.00003316  00000+0 -95446-2 0  9990
2 61607  87.8789 115.9517 0001767 111.4424 248.6892 13.10340718 30961
ONEWEB-0704             
1 61609U 24188R   25133.49065506  .00000255  00000+0  69365-3 0  9997
2 61609  87.8819 115.8742 0002521 109.2594 250.8807 13.10369763 30948
